NORAD_CAT_ID,OBJECT_NAME,OBJECT_TYPE,EPOCH,MEAN_MOTION,ECCENTRICITY,INCLINATION,RA_OF_ASC_NODE,ARG_OF_PERICENTER,MEAN_ANOMALY,BSTAR,MEAN_MOTION_DOT,MEAN_MOTION_DDOT,TLE_LINE0,TLE_LINE1,TLE_LINE2,SEMIMAJOR_AXIS,PERIOD,APOGEE,PERIGEE,DECAYED
50206.0,STARLINK-3258,PAYLOAD,2023-03-18 17:36:15,15.08854379,0.0001069,53.2143,78.6538,84.136,275.9754,0.00058739,9.076e-05,0.0,0 STARLINK-3258,1 50206U 21125BC  23077.73351008  .00009076  00000-0  58739-3 0  9997,2 50206  53.2143  78.6538 0001069  84.1360 275.9754 15.08854379 70565,6917.836,95.437,540.441,538.962,0.0
50206.0,STARLINK-3258,PAYLOAD,2023-03-19 06:19:20,15.08851392,0.0001413,53.2145,76.2738,92.5076,267.6078,0.00028568,4.263e-05,0.0,0 STARLINK-3258,1 50206U 21125BC  23078.26342888  .00004263  00000-0  28568-3 0  9992,2 50206  53.2145  76.2738 0001413  92.5076 267.6078 15.08851392 70641,6917.846,95.437,540.688,538.733,0.0
50206.0,STARLINK-3258,PAYLOAD,2023-03-19 11:05:29,15.08853597,0.0001266,53.2156,75.3807,94.3335,265.7802,0.00033245,5.009e-05,0.0,0 STARLINK-3258,1 50206U 21125BC  23078.46214720  .00005009  00000-0  33245-3 0  9994,2 50206  53.2156  75.3807 0001266  94.3335 265.7802 15.08853597 70670,6917.839,95.437,540.58,538.828,0.0
50206.0,STARLINK-3258,PAYLOAD,2023-03-20 06:10:07,15.08847285,9.72e-05,53.2156,71.8139,91.6616,268.4488,8.9379e-05,1.135e-05,0.0,0 STARLINK-3258,1 50206U 21125BC  23079.25702750  .00001135  00000-0  89379-4 0  9993,2 50206  53.2156  71.8139 0000972  91.6616 268.4488 15.08847285 70794,6917.858,95.437,540.396,539.051,0.0
50206.0,STARLINK-3258,PAYLOAD,2023-03-20 10:56:16,15.08852557,0.0001053,53.216,70.9217,91.6475,268.4638,0.00023888,3.517e-05,0.0,0 STARLINK-3258,1 50206U 21125BC  23079.45574432  .00003517  00000-0  23888-3 0  9997,2 50206  53.2160  70.9217 0001053  91.6475 268.4638 15.08852557 70829,6917.842,95.437,540.435,538.979,0.0
50206.0,STARLINK-3258,PAYLOAD,2023-03-21 07:36:17,15.08846056,0.0001112,53.2157,67.0582,104.8175,255.294,0.00024889,3.676e-05,0.0,0 STARLINK-3258,1 50206U 21125BC  23080.31686804  .00003676  00000-0  24889-3 0  9999,2 50206  53.2157  67.0582 0001112 104.8175 255.2940 15.08846056 70958,6917.862,95.437,540.496,538.958,0.0
50206.0,STARLINK-3258,PAYLOAD,2023-03-22 05:51:41,15.08835733,0.0001196,53.2165,62.8963,112.8301,247.2818,-5.9676e-06,-3.83e-06,0.0,0 STARLINK-3258,1 50206U 21125BC  23081.24423482 -.00000383  00000-0 -59676-5 0  9991,2 50206  53.2165  62.8963 0001196 112.8301 247.2818 15.08835733 71096,6917.893,95.438,540.586,538.931,0.0
50206.0,STARLINK-3258,PAYLOAD,2023-03-22 15:24:00,15.08840236,0.0001095,53.2168,61.1089,100.7862,259.3253,4.3117e-05,3.98e-06,0.0,0 STARLINK-3258,1 50206U 21125BC  23081.64167320  .00000398  00000-0  43117-4 0  9997,2 50206  53.2168  61.1089 0001095 100.7862 259.3253 15.08840236 71154,6917.88,95.438,540.502,538.987,0.0
50206.0,STARLINK-3258,PAYLOAD,2023-03-23 08:53:15,15.08847269,0.0001174,53.2164,57.8381,102.2503,257.8621,0.00017574,2.511e-05,0.0,0 STARLINK-3258,1 50206U 21125BC  23082.37031308  .00002511  00000-0  17574-3 0  9990,2 50206  53.2164  57.8381 0001174 102.2503 257.8621 15.08847269 71261,6917.858,95.437,540.535,538.911,0.0
50206.0,STARLINK-3258,PAYLOAD,2023-03-24 10:19:24,15.08876727,0.0001011,53.2156,53.0794,116.6241,243.4855,0.00073054,0.00011369,0.0,0 STARLINK-3258,1 50206U 21125BC  23083.43014096  .00011369  00000-0  73054-3 0  9999,2 50206  53.2156  53.0794 0001011 116.6241 243.4855 15.08876727 71425,6917.768,95.435,540.333,538.934,0.0
50206.0,STARLINK-3258,PAYLOAD,2023-03-25 05:24:02,15.08858557,0.0001428,53.2169,49.5098,90.9772,269.1383,0.00029806,4.461e-05,0.0,0 STARLINK-3258,1 50206U 21125BC  23084.22502495  .00004461  00000-0  29806-3 0  9993,2 50206  53.2169  49.5098 0001428  90.9772 269.1383 15.08858557 71546,6917.824,95.436,540.677,538.701,0.0
50206.0,STARLINK-3258,PAYLOAD,2023-03-25 10:10:11,15.08868476,0.0001294,53.2173,48.6178,91.4428,268.6713,0.00046748,7.166e-05,0.0,0 STARLINK-3258,1 50206U 21125BC  23084.42373885  .00007166  00000-0  46748-3 0  9993,2 50206  53.2173  48.6178 0001294  91.4428 268.6713 15.08868476 71570,6917.793,95.436,540.554,538.763,0.0
50206.0,STARLINK-3258,PAYLOAD,2023-03-26 03:39:27,15.08827509,0.0001514,53.2175,45.3465,112.3835,247.7318,-0.00034989,-5.85e-05,0.0,0 STARLINK-3258,1 50206U 21125BC  23085.15239609 -.00005850  00000-0 -34989-3 0  9993,2 50206  53.2175  45.3465 0001514 112.3835 247.7318 15.08827509 71688,6917.919,95.438,540.831,538.736,0.0
50206.0,STARLINK-3258,PAYLOAD,2023-03-26 06:50:13,15.08839085,0.0001261,53.2173,44.7536,103.9155,256.1977,-5.7508e-05,-1.203e-05,0.0,0 STARLINK-3258,1 50206U 21125BC  23085.28487453 -.00001203  00000-0 -57508-4 0  9990,2 50206  53.2173  44.7536 0001261 103.9155 256.1977 15.08839085 71708,6917.883,95.438,540.621,538.876,0.0
50206.0,STARLINK-3258,PAYLOAD,2023-03-27 06:41:00,15.08851775,0.0001303,53.2177,40.2936,98.214,261.9,0.0001392,1.929e-05,0.0,0 STARLINK-3258,1 50206U 21125BC  23086.27847234  .00001929  00000-0  13920-3 0  9999,2 50206  53.2177  40.2936 0001303  98.2140 261.9000 15.08851775 71851,6917.844,95.437,540.611,538.808,0.0
50206.0,STARLINK-3258,PAYLOAD,2023-03-28 06:31:47,15.08849582,0.0001495,53.218,35.8301,111.3308,248.7844,0.00032956,4.962e-05,0.0,0 STARLINK-3258,1 50206U 21125BC  23087.27207707  .00004962  00000-0  32956-3 0  9995,2 50206  53.2180  35.8301 0001495 111.3308 248.7844 15.08849582 72006,6917.851,95.437,540.75,538.682,0.0
50206.0,STARLINK-3258,PAYLOAD,2023-03-29 00:01:01,15.08847178,0.0001456,53.2164,32.5585,113.9065,246.208,8.9071e-05,1.13e-05,0.0,0 STARLINK-3258,1 50206U 21125BC  23088.00071638  .00001130  00000-0  89071-4 0  9994,2 50206  53.2164  32.5585 0001456 113.9065 246.2080 15.08847178 72117,6917.858,95.437,540.731,538.716,0.0
50206.0,STARLINK-3258,PAYLOAD,2023-03-29 03:11:48,15.08852669,0.0001157,53.217,31.9696,88.6092,271.5033,0.00013911,1.928e-05,0.0,0 STARLINK-3258,1 50206U 21125BC  23088.13319466  .00001928  00000-0  13911-3 0  9996,2 50206  53.2170  31.9696 0001157  88.6092 271.5033 15.08852669 72138,6917.842,95.437,540.507,538.906,0.0
50206.0,STARLINK-3258,PAYLOAD,2023-03-29 22:16:26,15.08838075,0.0001172,53.2177,28.4036,86.5215,273.5911,-7.7825e-05,-1.526e-05,0.0,0 STARLINK-3258,1 50206U 21125BC  23088.92808257 -.00001526  00000-0 -77825-4 0  9995,2 50206  53.2177  28.4036 0001172  86.5215 273.5911 15.08838075 72250,6917.886,95.438,540.562,538.94,0.0
50206.0,STARLINK-3258,PAYLOAD,2023-03-30 12:34:54,15.08839153,0.0001376,53.2172,25.723,88.3436,271.7714,2.9344e-05,1.79e-06,0.0,0 STARLINK-3258,1 50206U 21125BC  23089.52424108  .00000179  00000-0  29344-4 0  9995,2 50206  53.2172  25.7230 0001376  88.3436 271.7714 15.08839153 72341,6917.883,95.438,540.7,538.796,0.0
50206.0,STARLINK-3258,PAYLOAD,2023-03-31 06:04:08,15.08856695,0.0001056,53.2167,22.451,106.1089,254.002,0.00039194,5.958e-05,0.0,0 STARLINK-3258,1 50206U 21125BC  23090.25287328  .00005958  00000-0  39194-3 0  9991,2 50206  53.2167  22.4510 0001056 106.1089 254.0020 15.08856695 72454,6917.829,95.436,540.425,538.964,0.0
50206.0,STARLINK-3258,PAYLOAD,2023-03-31 18:47:14,15.08844376,0.000162,53.2161,20.0725,94.2953,265.8224,8.6465e-05,1.088e-05,0.0,0 STARLINK-3258,1 50206U 21125BC  23090.78280247  .00001088  00000-0  86465-4 0  9996,2 50206  53.2161  20.0725 0001620  94.2953 265.8224 15.08844376 72532,6917.867,95.437,540.853,538.611,0.0
50206.0,STARLINK-3258,PAYLOAD,2023-04-01 04:19:32,15.08847347,0.0001106,53.2163,18.2881,95.1706,264.9412,0.00021314,3.107e-05,0.0,0 STARLINK-3258,1 50206U 21125BC  23091.18024136  .00003107  00000-0  21314-3 0  9999,2 50206  53.2163  18.2881 0001106  95.1706 264.9412 15.08847347 72597,6917.858,95.437,540.488,538.958,0.0
50206.0,STARLINK-3258,PAYLOAD,2023-04-02 00:59:34,15.0883085,0.0001305,53.218,14.4215,91.3854,268.7288,2.0021e-05,3.1e-07,0.0,0 STARLINK-3258,1 50206U 21125BC  23092.04137228  .00000031  00000-0  20021-4 0  9990,2 50206  53.2180  14.4215 0001305  91.3854 268.7288 15.08830850 72727,6917.908,95.438,540.676,538.871,0.0
50206.0,STARLINK-3258,PAYLOAD,2023-04-02 18:28:49,15.08841795,0.0001284,53.2182,11.1531,81.5833,278.5305,0.0003939,5.987e-05,0.0,0 STARLINK-3258,1 50206U 21125BC  23092.77001514  .00005987  00000-0  39390-3 0  9991,2 50206  53.2182  11.1531 0001284  81.5833 278.5305 15.08841795 72839,6917.875,95.437,540.628,538.852,0.0
50206.0,STARLINK-3258,PAYLOAD,2023-04-03 04:01:07,15.0885724,0.0001338,53.2172,9.3685,78.5077,281.6066,0.00079064,0.00012323,0.0,0 STARLINK-3258,1 50206U 21125BC  23093.16745152  .00012323  00000-0  79064-3 0  9992,2 50206  53.2172   9.3685 0001338  78.5077 281.6066 15.08857240 72890,6917.828,95.436,540.618,538.767,0.0
50206.0,STARLINK-3258,PAYLOAD,2023-04-03 21:30:22,15.08851971,0.0001213,53.2168,6.0987,78.3099,281.8029,0.0003437,5.188e-05,0.0,0 STARLINK-3258,1 50206U 21125BC  23093.89608929  .00005188  00000-0  34370-3 0  9994,2 50206  53.2168   6.0987 0001213  78.3099 281.8029 15.08851971 73008,6917.844,95.437,540.548,538.87,0.0
50206.0,STARLINK-3258,PAYLOAD,2023-04-04 05:27:17,15.08872076,0.0001214,53.2177,4.6111,85.0926,275.0205,0.0010687,0.00016776,0.0,0 STARLINK-3258,1 50206U 21125BC  23094.22728301  .00016776  00000-0  10687-2 0  9998,2 50206  53.2177   4.6111 0001214  85.0926 275.0205 15.08872076 73051,6917.782,95.436,540.487,538.808,0.0
50206.0,STARLINK-3258,PAYLOAD,2023-04-04 21:21:09,15.08838459,0.0001186,53.2175,1.6375,104.0607,256.0517,0.00038068,5.776e-05,0.0,0 STARLINK-3258,1 50206U 21125BC  23094.88968813  .00005776  00000-0  38068-3 0  9996,2 50206  53.2175   1.6375 0001186 104.0607 256.0517 15.08838459 73157,6917.885,95.438,540.571,538.93,0.0
50206.0,STARLINK-3258,PAYLOAD,2023-04-05 02:07:18,15.08844309,0.0001277,53.2177,0.7457,105.0607,255.0527,0.0006741,0.00010458,0.0,0 STARLINK-3258,1 50206U 21125BC  23095.08840821  .00010458  00000-0  67410-3 0  9993,2 50206  53.2177   0.7457 0001277 105.0607 255.0527 15.08844309 73186,6917.867,95.437,540.616,538.849,0.0
